NORAD_CAT_ID,OBJECT_NAME,OBJECT_TYPE,EPOCH,MEAN_MOTION,ECCENTRICITY,INCLINATION,RA_OF_ASC_NODE,ARG_OF_PERICENTER,MEAN_ANOMALY,BSTAR,MEAN_MOTION_DOT,MEAN_MOTION_DDOT,TLE_LINE0,TLE_LINE1,TLE_LINE2,SEMIMAJOR_AXIS,PERIOD,APOGEE,PERIGEE,DECAYED
53733.0,STARLINK-4574,PAYLOAD,2024-02-28 11:29:20,15.08852434,0.0001241,53.2169,337.288,91.9735,268.1399,0.00089151,0.00013934,0.0,0 STARLINK-4574,1 53733U 22107AK  24059.47870669  .00013934  00000-0  89151-3 0  9997,2 53733  53.2169 337.2880 0001241  91.9735 268.1399 15.08852434 82202,6917.842,95.437,540.566,538.849,0.0
53733.0,STARLINK-4574,PAYLOAD,2024-02-28 22:37:01,15.0885423,0.0001269,53.2167,335.2067,91.4587,268.6551,0.00049175,7.55e-05,0.0,0 STARLINK-4574,1 53733U 22107AK  24059.94238383  .00007550  00000-0  49175-3 0  9999,2 53733  53.2167 335.2067 0001269  91.4587 268.6551 15.08854230 82903,6917.837,95.437,540.58,538.824,0.0
53733.0,STARLINK-4574,PAYLOAD,2024-02-29 11:20:06,15.08851302,0.0001413,53.2169,332.8264,87.5038,272.6116,0.00024823,3.666e-05,0.0,0 STARLINK-4574,1 53733U 22107AK  24060.47230142  .00003666  00000-0  24823-3 0  9991,2 53733  53.2169 332.8264 0001413  87.5038 272.6116 15.08851302 82353,6917.846,95.437,540.688,538.733,0.0
53733.0,STARLINK-4574,PAYLOAD,2024-02-29 22:27:48,15.08849038,0.0001733,53.2177,330.7425,97.1836,262.9353,0.00030915,4.637e-05,0.0,0 STARLINK-4574,1 53733U 22107AK  24060.93598113  .00004637  00000-0  30915-3 0  9995,2 53733  53.2177 330.7425 0001733  97.1836 262.9353 15.08849038 83052,6917.853,95.437,540.917,538.519,0.0
53733.0,STARLINK-4574,PAYLOAD,2024-03-01 11:10:53,15.0884699,0.0001401,53.2174,328.3651,86.5619,273.5533,0.00013486,1.859e-05,0.0,0 STARLINK-4574,1 53733U 22107AK  24061.46589989  .00001859  00000-0  13486-3 0  9992,2 53733  53.2174 328.3651 0001401  86.5619 273.5533 15.08846990 83137,6917.859,95.437,540.693,538.755,0.0
53733.0,STARLINK-4574,PAYLOAD,2024-03-01 22:18:35,15.08846746,0.0001366,53.2174,326.2832,90.6518,269.4631,0.00017739,2.537e-05,0.0,0 STARLINK-4574,1 53733U 22107AK  24061.92957912  .00002537  00000-0  17739-3 0  9997,2 53733  53.2174 326.2832 0001366  90.6518 269.4631 15.08846746 83209,6917.86,95.437,540.67,538.78,0.0
53733.0,STARLINK-4574,PAYLOAD,2024-03-02 12:37:03,15.08848608,0.0001316,53.2167,323.609,85.5305,274.5837,0.00019986,2.895e-05,0.0,0 STARLINK-4574,1 53733U 22107AK  24062.52573825  .00002895  00000-0  19986-3 0  9994,2 53733  53.2167 323.6090 0001316  85.5305 274.5837 15.08848608 83293,6917.854,95.437,540.629,538.809,0.0
53733.0,STARLINK-4574,PAYLOAD,2024-03-02 20:33:59,15.08840527,0.0001325,53.2162,322.1221,84.9142,275.2002,0.00010322,1.355e-05,0.0,0 STARLINK-4574,1 53733U 22107AK  24062.85694178  .00001355  00000-0  10322-3 0  9990,2 53733  53.2162 322.1221 0001325  84.9142 275.2002 15.08840527 82710,6917.879,95.438,540.66,538.827,0.0
53733.0,STARLINK-4574,PAYLOAD,2024-03-02 22:09:22,15.08840259,0.0001366,53.2167,321.8252,83.5045,276.6102,8.4889e-05,1.063e-05,0.0,0 STARLINK-4574,1 53733U 22107AK  24062.92318159  .00001063  00000-0  84889-4 0  9996,2 53733  53.2167 321.8252 0001366  83.5045 276.6102 15.08840259 83356,6917.88,95.438,540.69,538.8,0.0
53733.0,STARLINK-4574,PAYLOAD,2024-03-03 02:55:31,15.08847679,0.0001305,53.2165,320.9295,89.3023,270.8119,0.00010818,1.435e-05,0.0,0 STARLINK-4574,1 53733U 22107AK  24063.12189712  .00001435  00000-0  10818-3 0  9993,2 53733  53.2165 320.9295 0001305  89.3023 270.8119 15.08847679 83384,6917.857,95.437,540.625,538.819,0.0
53733.0,STARLINK-4574,PAYLOAD,2024-03-03 20:24:46,15.08839789,0.0001562,53.2182,317.6539,104.4601,255.6564,3.7116e-05,3.03e-06,0.0,0 STARLINK-4574,1 53733U 22107AK  24063.85054152  .00000303  00000-0  37116-4 0  9996,2 53733  53.2182 317.6539 0001562 104.4601 255.6564 15.08839789 83493,6917.881,95.438,540.827,538.665,0.0
53733.0,STARLINK-4574,PAYLOAD,2024-03-04 02:46:18,15.08848636,0.0001518,53.2182,316.4632,93.1433,266.9733,7.4181e-05,8.93e-06,0.0,0 STARLINK-4574,1 53733U 22107AK  24064.11549700  .00000893  00000-0  74181-4 0  9991,2 53733  53.2182 316.4632 0001518  93.1433 266.9733 15.08848636 82901,6917.854,95.437,540.769,538.669,0.0
53733.0,STARLINK-4574,PAYLOAD,2024-03-04 21:50:56,15.08854975,0.0001255,53.2179,312.8954,104.4175,255.6957,0.00030413,4.558e-05,0.0,0 STARLINK-4574,1 53733U 22107AK  24064.91037083  .00004558  00000-0  30413-3 0  9996,2 53733  53.2179 312.8954 0001255 104.4175 255.6957 15.08854975 83650,6917.835,95.437,540.568,538.831,0.0
53733.0,STARLINK-4574,PAYLOAD,2024-03-04 23:26:19,15.08855049,0.0001427,53.2174,312.6009,109.1222,250.9924,0.00034709,5.243e-05,0.0,0 STARLINK-4574,1 53733U 22107AK  24064.97661140  .00005243  00000-0  34709-3 0  9993,2 53733  53.2174 312.6009 0001427 109.1222 250.9924 15.08855049 83666,6917.834,95.437,540.687,538.712,0.0
53733.0,STARLINK-4574,PAYLOAD,2024-03-05 21:41:43,15.08825248,0.0001201,53.2167,308.438,73.9264,286.1861,-0.00033632,-5.634e-05,0.0,0 STARLINK-4574,1 53733U 22107AK  24065.90398111 -.00005634  00000-0 -33632-3 0  9992,2 53733  53.2167 308.4380 0001201  73.9264 286.1861 15.08825248 83172,6917.925,95.438,540.621,538.96,0.0
53733.0,STARLINK-4574,PAYLOAD,2024-03-05 23:17:07,15.0882767,0.0001251,53.2173,308.1412,82.0051,278.1083,-0.00027542,-4.667e-05,0.0,0 STARLINK-4574,1 53733U 22107AK  24065.97022059 -.00004667  00000-0 -27542-3 0  9992,2 53733  53.2173 308.1412 0001251  82.0051 278.1083 15.08827670 83811,6917.918,95.438,540.649,538.918,0.0
53733.0,STARLINK-4574,PAYLOAD,2024-03-06 19:57:07,15.08842625,0.0001117,53.2172,304.2815,93.0287,267.0833,0.00010865,1.442e-05,0.0,0 STARLINK-4574,1 53733U 22107AK  24066.83133903  .00001442  00000-0  10865-3 0  9995,2 53733  53.2172 304.2815 0001117  93.0287 267.0833 15.08842625 83310,6917.872,95.437,540.51,538.965,0.0
53733.0,STARLINK-4574,PAYLOAD,2024-03-07 08:40:13,15.08842099,0.0001083,53.2169,301.8963,93.8335,266.2781,0.00039413,5.991e-05,0.0,0 STARLINK-4574,1 53733U 22107AK  24067.36126384  .00005991  00000-0  39413-3 0  9992,2 53733  53.2169 301.8963 0001083  93.8335 266.2781 15.08842099 84024,6917.874,95.437,540.488,538.99,0.0
53733.0,STARLINK-4574,PAYLOAD,2024-03-08 00:34:04,15.08840825,0.0001264,53.2163,298.9253,78.3509,281.7625,0.00030586,4.583e-05,0.0,0 STARLINK-4574,1 53733U 22107AK  24068.02366747  .00004583  00000-0  30586-3 0  9993,2 53733  53.2163 298.9253 0001264  78.3509 281.7625 15.08840825 83492,6917.878,95.438,540.617,538.868,0.0
53733.0,STARLINK-4574,PAYLOAD,2024-03-08 08:31:00,15.0884869,0.0001222,53.2162,297.4402,79.7133,280.3997,0.00054514,8.401e-05,0.0,0 STARLINK-4574,1 53733U 22107AK  24068.35486652  .00008401  00000-0  54514-3 0  9997,2 53733  53.2162 297.4402 0001222  79.7133 280.3997 15.08848690 84174,6917.854,95.437,540.564,538.873,0.0
53733.0,STARLINK-4574,PAYLOAD,2024-03-08 21:14:05,15.08852126,0.0001118,53.2153,295.0602,89.7746,270.3375,0.00057905,8.943e-05,0.0,0 STARLINK-4574,1 53733U 22107AK  24068.88478428  .00008943  00000-0  57905-3 0  9995,2 53733  53.2153 295.0602 0001118  89.7746 270.3375 15.08852126 84252,6917.843,95.437,540.482,538.935,0.0
53733.0,STARLINK-4574,PAYLOAD,2024-03-09 08:21:46,15.08851093,2.21e-05,53.2168,292.9769,226.2899,133.8075,0.00040326,6.138e-05,0.0,0 STARLINK-4574,1 53733U 22107AK  24069.34845883  .00006138  00000-0  40326-3 0  9993,2 53733  53.2168 292.9769 0000221 226.2899 133.8075 15.08851093 83698,6917.846,95.437,539.864,539.559,0.0
53733.0,STARLINK-4574,PAYLOAD,2024-03-09 21:04:52,15.08847123,0.0001546,53.2153,290.5982,84.3002,275.8166,0.00033856,5.105e-05,0.0,0 STARLINK-4574,1 53733U 22107AK  24069.87838382  .00005105  00000-0  33856-3 0  9990,2 53733  53.2153 290.5982 0001546  84.3002 275.8166 15.08847123 84400,6917.859,95.437,540.793,538.654,0.0
53733.0,STARLINK-4574,PAYLOAD,2024-03-10 00:15:38,15.08840628,0.0001356,53.2144,290.0038,86.1565,273.9582,0.00023017,3.377e-05,0.0,0 STARLINK-4574,1 53733U 22107AK  24070.01086568  .00003377  00000-0  23017-3 0  9996,2 53733  53.2144 290.0038 0001356  86.1565 273.9582 15.08840628 83795,6917.878,95.438,540.682,538.805,0.0
53733.0,STARLINK-4574,PAYLOAD,2024-03-10 08:12:34,15.0884138,0.0001337,53.2143,288.5163,85.9042,274.2103,0.00018593,2.673e-05,0.0,0 STARLINK-4574,1 53733U 22107AK  24070.34206612  .00002673  00000-0  18593-3 0  9997,2 53733  53.2143 288.5163 0001337  85.9042 274.2103 15.08841380 84476,6917.876,95.437,540.666,538.816,0.0
53733.0,STARLINK-4574,PAYLOAD,2024-03-10 20:55:39,15.08842048,0.0001322,53.2162,286.1357,93.6946,266.4197,0.0002303,3.379e-05,0.0,0 STARLINK-4574,1 53733U 22107AK  24070.87198651  .00003379  00000-0  23030-3 0  9994,2 53733  53.2162 286.1357 0001322  93.6946 266.4197 15.08842048 84556,6917.874,95.437,540.654,538.825,0.0
53733.0,STARLINK-4574,PAYLOAD,2024-03-11 00:06:25,15.08841892,0.0001456,53.2162,285.541,93.8626,266.2533,0.00025469,3.768e-05,0.0,0 STARLINK-4574,1 53733U 22107AK  24071.00446686  .00003768  00000-0  25469-3 0  9994,2 53733  53.2162 285.5410 0001456  93.8626 266.2533 15.08841892 83944,6917.875,95.437,540.747,538.732,0.0
53733.0,STARLINK-4574,PAYLOAD,2024-03-11 20:46:26,15.08842249,0.0001278,53.216,281.6763,80.7355,279.3782,0.00018956,2.73e-05,0.0,0 STARLINK-4574,1 53733U 22107AK  24071.86558679  .00002730  00000-0  18956-3 0  9995,2 53733  53.2160 281.6763 0001278  80.7355 279.3782 15.08842249 84079,6917.874,95.437,540.623,538.854,0.0
53733.0,STARLINK-4574,PAYLOAD,2024-03-12 20:37:13,15.08843217,0.0001157,53.2152,277.216,307.2355,52.8532,0.00017805,2.547e-05,0.0,0 STARLINK-4574,1 53733U 22107AK  24072.85918697  .00002547  00000-0  17805-3 0  9993,2 53733  53.2152 277.2160 0001157 307.2355  52.8532 15.08843217 84854,6917.871,95.437,540.536,538.935,0.0
53733.0,STARLINK-4574,PAYLOAD,2024-03-12 23:47:59,15.08847467,0.0001132,53.2147,276.6218,81.0714,279.0406,0.00013724,1.897e-05,0.0,0 STARLINK-4574,1 53733U 22107AK  24072.99166329  .00001897  00000-0  13724-3 0  9998,2 53733  53.2147 276.6218 0001132  81.0714 279.0406 15.08847467 84241,6917.858,95.437,540.506,538.939,0.0
